[{"OBJECT_NAME":"STARLINK-2682","OBJECT_ID":"2021-040N","EPOCH":"2026-03-09T22:07:13.011168","MEAN_MOTION":15.30195409,"ECCENTRICITY":0.00011742,"INCLINATION":53.1572,"RA_OF_ASC_NODE":177.0645,"ARG_OF_PERICENTER":86.6207,"MEAN_ANOMALY":273.4928,"EPHEMERIS_TYPE":0,"CLASSIFICATION_TYPE":"U","NORAD_CAT_ID":48440,"ELEMENT_SET_NO":999,"REV_AT_EPOCH":26671,"BSTAR":0.00032316809,"MEAN_MOTION_DOT":9.223e-5,"MEAN_MOTION_DDOT":0},{"OBJECT_NAME":"VSP RF C1","OBJECT_ID":"2024-043AQ","EPOCH":"2026-03-09T21:56:05.358624","MEAN_MOTION":15.29409663,"ECCENTRICITY":0.00093965,"INCLINATION":97.5441,"RA_OF_ASC_NODE":205.1792,"ARG_OF_PERICENTER":219.6172,"MEAN_ANOMALY":140.4382,"EPHEMERIS_TYPE":0,"CLASSIFICATION_TYPE":"U","NORAD_CAT_ID":59136,"ELEMENT_SET_NO":999,"REV_AT_EPOCH":11190,"BSTAR":0.00026222052,"MEAN_MOTION_DOT":7.409e-5,"MEAN_MOTION_DDOT":0}]
